[{"OBJECT_NAME":"STARLINK-32227","OBJECT_ID":"2024-138G","EPOCH":"2026-03-09T22:46:38.747712","MEAN_MOTION":15.30198054,"ECCENTRICITY":0.00019781,"INCLINATION":53.1608,"RA_OF_ASC_NODE":308.6499,"ARG_OF_PERICENTER":28.6029,"MEAN_ANOMALY":331.508,"EPHEMERIS_TYPE":0,"CLASSIFICATION_TYPE":"U","NORAD_CAT_ID":60361,"ELEMENT_SET_NO":999,"REV_AT_EPOCH":9067,"BSTAR":6.1402339e-5,"MEAN_MOTION_DOT":1.459e-5,"MEAN_MOTION_DDOT":0},{"OBJECT_NAME":"CZ-2D DEB","OBJECT_ID":"2010-027G","EPOCH":"2026-03-07T07:54:25.300800","MEAN_MOTION":15.18267572,"ECCENTRICITY":0.0071051,"INCLINATION":97.484,"RA_OF_ASC_NODE":105.3106,"ARG_OF_PERICENTER":258.5099,"MEAN_ANOMALY":100.8151,"EPHEMERIS_TYPE":0,"CLASSIFICATION_TYPE":"U","NORAD_CAT_ID":38302,"ELEMENT_SET_NO":999,"REV_AT_EPOCH":83107,"BSTAR":0.0021438,"MEAN_MOTION_DOT":0.00047105,"MEAN_MOTION_DDOT":0}]
